CCSDS_OMM_VERS = 2.0
CREATION_DATE  = 
ORIGINATOR     = 

OBJECT_NAME    = IDEFIX & ARIANE 42P R/B
OBJECT_ID      = 2002-021B
CENTER_NAME    = EARTH
REF_FRAME      = TEME
TIME_SYSTEM    = UTC
MEAN_ELEMENT_THEORY = SGP/SGP4

EPOCH          = 2025-12-03T20:13:34.843296
MEAN_MOTION    = 14.30940218
ECCENTRICITY   = .00128291
INCLINATION    = 98.5772
RA_OF_ASC_NODE = 272.6496
ARG_OF_PERICENTER = 107.6487
MEAN_ANOMALY   = 252.6098

EPHEMERIS_TYPE = 0
CLASSIFICATION_TYPE = U
NORAD_CAT_ID   = 27422
ELEMENT_SET_NO = 999
REV_AT_EPOCH   = 23031
BSTAR          = .24974749E-3
MEAN_MOTION_DOT = .613E-5
MEAN_MOTION_DDOT = 0

CCSDS_OMM_VERS = 2.0
CREATION_DATE  = 
ORIGINATOR     = 

OBJECT_NAME    = AQUA
OBJECT_ID      = 2002-022A
CENTER_NAME    = EARTH
REF_FRAME      = TEME
TIME_SYSTEM    = UTC
MEAN_ELEMENT_THEORY = SGP/SGP4

EPOCH          = 2025-12-03T22:24:45.484128
MEAN_MOTION    = 14.61776098
ECCENTRICITY   = .0000758
INCLINATION    = 98.4024
RA_OF_ASC_NODE = 298.6706
ARG_OF_PERICENTER = 109.5998
MEAN_ANOMALY   = 342.9166

EPHEMERIS_TYPE = 0
CLASSIFICATION_TYPE = U
NORAD_CAT_ID   = 27424
ELEMENT_SET_NO = 999
REV_AT_EPOCH   = 25474
BSTAR          = .41796252E-3
MEAN_MOTION_DOT = .2036E-4
MEAN_MOTION_DDOT = 0

CCSDS_OMM_VERS = 2.0
CREATION_DATE  = 
ORIGINATOR     = 

OBJECT_NAME    = CZ-4B R/B
OBJECT_ID      = 2002-024C
CENTER_NAME    = EARTH
REF_FRAME      = TEME
TIME_SYSTEM    = UTC
MEAN_ELEMENT_THEORY = SGP/SGP4

EPOCH          = 2025-12-03T17:49:19.609248
MEAN_MOTION    = 14.14524813
ECCENTRICITY   = .00492199
INCLINATION    = 98.9013
RA_OF_ASC_NODE = 26.5452
ARG_OF_PERICENTER = 295.9735
MEAN_ANOMALY   = 173.7893

EPHEMERIS_TYPE = 0
CLASSIFICATION_TYPE = U
NORAD_CAT_ID   = 27432
ELEMENT_SET_NO = 999
REV_AT_EPOCH   = 21567
BSTAR          = .78708498E-4
MEAN_MOTION_DOT = .108E-5
MEAN_MOTION_DDOT = 0

CCSDS_OMM_VERS = 2.0
CREATION_DATE  = 
ORIGINATOR     = 

OBJECT_NAME    = MIDORI II (ADEOS-II)
OBJECT_ID      = 2002-056A
CENTER_NAME    = EARTH
REF_FRAME      = TEME
TIME_SYSTEM    = UTC
MEAN_ELEMENT_THEORY = SGP/SGP4

EPOCH          = 2025-12-03T19:46:58.001088
MEAN_MOTION    = 14.29196416
ECCENTRICITY   = .00002966
INCLINATION    = 98.7621
RA_OF_ASC_NODE = 290.7344
ARG_OF_PERICENTER = 7.5181
MEAN_ANOMALY   = 352.6005

EPHEMERIS_TYPE = 0
CLASSIFICATION_TYPE = U
NORAD_CAT_ID   = 27597
ELEMENT_SET_NO = 999
REV_AT_EPOCH   = 19660
BSTAR          = .23438541E-3
MEAN_MOTION_DOT = .55E-5
MEAN_MOTION_DDOT = 0

CCSDS_OMM_VERS = 2.0
CREATION_DATE  = 
ORIGINATOR     = 

OBJECT_NAME    = H-2A R/B
OBJECT_ID      = 2002-056E
CENTER_NAME    = EARTH
REF_FRAME      = TEME
TIME_SYSTEM    = UTC
MEAN_ELEMENT_THEORY = SGP/SGP4

EPOCH          = 2025-12-03T22:52:17.085792
MEAN_MOTION    = 14.33665277
ECCENTRICITY   = .0071507
INCLINATION    = 98.3052
RA_OF_ASC_NODE = 297.0604
ARG_OF_PERICENTER = 86.9124
MEAN_ANOMALY   = 314.7601

EPHEMERIS_TYPE = 0
CLASSIFICATION_TYPE = U
NORAD_CAT_ID   = 27601
ELEMENT_SET_NO = 999
REV_AT_EPOCH   = 20039
BSTAR          = .2320383E-3
MEAN_MOTION_DOT = .621E-5
MEAN_MOTION_DDOT = 0

CCSDS_OMM_VERS = 2.0
CREATION_DATE  = 
ORIGINATOR     = 

OBJECT_NAME    = CZ-4B R/B
OBJECT_ID      = 2003-049C
CENTER_NAME    = EARTH
REF_FRAME      = TEME
TIME_SYSTEM    = UTC
MEAN_ELEMENT_THEORY = SGP/SGP4

EPOCH          = 2025-12-03T22:19:26.127264
MEAN_MOTION    = 14.54897349
ECCENTRICITY   = .00485415
INCLINATION    = 98.6780
RA_OF_ASC_NODE = 324.1616
ARG_OF_PERICENTER = 162.6675
MEAN_ANOMALY   = 197.6192

EPHEMERIS_TYPE = 0
CLASSIFICATION_TYPE = U
NORAD_CAT_ID   = 28059
ELEMENT_SET_NO = 999
REV_AT_EPOCH   = 17267
BSTAR          = .18977125E-3
MEAN_MOTION_DOT = .777E-5
MEAN_MOTION_DDOT = 0

CCSDS_OMM_VERS = 2.0
CREATION_DATE  = 
ORIGINATOR     = 

OBJECT_NAME    = CZ-2C R/B
OBJECT_ID      = 2004-012C
CENTER_NAME    = EARTH
REF_FRAME      = TEME
TIME_SYSTEM    = UTC
MEAN_ELEMENT_THEORY = SGP/SGP4

EPOCH          = 2025-12-03T22:10:24.499488
MEAN_MOTION    = 15.54613524
ECCENTRICITY   = .00169427
INCLINATION    = 97.7441
RA_OF_ASC_NODE = 29.8230
ARG_OF_PERICENTER = 304.9469
MEAN_ANOMALY   = 55.0192

EPHEMERIS_TYPE = 0
CLASSIFICATION_TYPE = U
NORAD_CAT_ID   = 28222
ELEMENT_SET_NO = 999
REV_AT_EPOCH   = 18935
BSTAR          = .86209523E-3
MEAN_MOTION_DOT = .57557E-3
MEAN_MOTION_DDOT = 0

CCSDS_OMM_VERS = 2.0
CREATION_DATE  = 
ORIGINATOR     = 

OBJECT_NAME    = SL-16 R/B
OBJECT_ID      = 2004-021B
CENTER_NAME    = EARTH
REF_FRAME      = TEME
TIME_SYSTEM    = UTC
MEAN_ELEMENT_THEORY = SGP/SGP4

EPOCH          = 2025-12-03T15:22:55.514784
MEAN_MOTION    = 14.14582511
ECCENTRICITY   = .00057748
INCLINATION    = 71.0022
RA_OF_ASC_NODE = 74.0584
ARG_OF_PERICENTER = 212.4894
MEAN_ANOMALY   = 147.5874

EPHEMERIS_TYPE = 0
CLASSIFICATION_TYPE = U
NORAD_CAT_ID   = 28353
ELEMENT_SET_NO = 999
REV_AT_EPOCH   = 10925
BSTAR          = -.26853134E-4
MEAN_MOTION_DOT = -.99E-6
MEAN_MOTION_DDOT = 0

CCSDS_OMM_VERS = 2.0
CREATION_DATE  = 
ORIGINATOR     = 

OBJECT_NAME    = CZ-4B R/B
OBJECT_ID      = 2004-035C
CENTER_NAME    = EARTH
REF_FRAME      = TEME
TIME_SYSTEM    = UTC
MEAN_ELEMENT_THEORY = SGP/SGP4

EPOCH          = 2025-12-03T23:28:55.387776
MEAN_MOTION    = 15.27152830
ECCENTRICITY   = .00321388
INCLINATION    = 97.3617
RA_OF_ASC_NODE = 8.4409
ARG_OF_PERICENTER = 310.0104
MEAN_ANOMALY   = 49.8315

EPHEMERIS_TYPE = 0
CLASSIFICATION_TYPE = U
NORAD_CAT_ID   = 28415
ELEMENT_SET_NO = 999
REV_AT_EPOCH   = 16529
BSTAR          = .58159703E-3
MEAN_MOTION_DOT = .1566E-3
MEAN_MOTION_DDOT = 0

CCSDS_OMM_VERS = 2.0
CREATION_DATE  = 
ORIGINATOR     = 

OBJECT_NAME    = CZ-2C R/B
OBJECT_ID      = 2004-046B
CENTER_NAME    = EARTH
REF_FRAME      = TEME
TIME_SYSTEM    = UTC
MEAN_ELEMENT_THEORY = SGP/SGP4

EPOCH          = 2025-12-03T20:14:25.904832
MEAN_MOTION    = 14.26934563
ECCENTRICITY   = .01406784
INCLINATION    = 98.1982
RA_OF_ASC_NODE = 253.7745
ARG_OF_PERICENTER = 78.4049
MEAN_ANOMALY   = 283.2885

EPHEMERIS_TYPE = 0
CLASSIFICATION_TYPE = U
NORAD_CAT_ID   = 28480
ELEMENT_SET_NO = 999
REV_AT_EPOCH   = 9483
BSTAR          = .14322025E-3
MEAN_MOTION_DOT = .346E-5
MEAN_MOTION_DDOT = 0

CCSDS_OMM_VERS = 2.0
CREATION_DATE  = 
ORIGINATOR     = 

OBJECT_NAME    = ARIANE 5 R/B
OBJECT_ID      = 2004-049H
CENTER_NAME    = EARTH
REF_FRAME      = TEME
TIME_SYSTEM    = UTC
MEAN_ELEMENT_THEORY = SGP/SGP4

EPOCH          = 2025-12-03T21:25:59.337696
MEAN_MOTION    = 14.84980491
ECCENTRICITY   = .00835496
INCLINATION    = 98.2521
RA_OF_ASC_NODE = 137.8574
ARG_OF_PERICENTER = 302.0186
MEAN_ANOMALY   = 57.2930

EPHEMERIS_TYPE = 0
CLASSIFICATION_TYPE = U
NORAD_CAT_ID   = 28499
ELEMENT_SET_NO = 999
REV_AT_EPOCH   = 13157
BSTAR          = .21037755E-3
MEAN_MOTION_DOT = .1843E-4
MEAN_MOTION_DDOT = 0

CCSDS_OMM_VERS = 2.0
CREATION_DATE  = 
ORIGINATOR     = 

OBJECT_NAME    = CZ-2D R/B
OBJECT_ID      = 2005-024B
CENTER_NAME    = EARTH
REF_FRAME      = TEME
TIME_SYSTEM    = UTC
MEAN_ELEMENT_THEORY = SGP/SGP4

EPOCH          = 2025-12-03T13:42:45.339840
MEAN_MOTION    = 15.52488448
ECCENTRICITY   = .00068929
INCLINATION    = 97.3628
RA_OF_ASC_NODE = 344.7833
ARG_OF_PERICENTER = 36.2420
MEAN_ANOMALY   = 323.9298

EPHEMERIS_TYPE = 0
CLASSIFICATION_TYPE = U
NORAD_CAT_ID   = 28738
ELEMENT_SET_NO = 999
REV_AT_EPOCH   = 12483
BSTAR          = .52370027E-3
MEAN_MOTION_DOT = .32073E-3
MEAN_MOTION_DDOT = 0

