IDEFIX & ARIANE 42P R/B 
1 27422U 02021B   25337.84276439  .00000613  00000+0  24975-3 0  9994
2 27422  98.5772 272.6496 0012829 107.6487 252.6098 14.30940218230311
AQUA                    
1 27424U 02022A   25337.93385977  .00002036  00000+0  41796-3 0  9996
2 27424  98.4024 298.6706 0000758 109.5998 342.9166 14.61776098254749
CZ-4B R/B               
1 27432U 02024C   25337.74258807  .00000108  00000+0  78708-4 0  9999
2 27432  98.9013  26.5452 0049219 295.9735 173.7893 14.14524813215671
MIDORI II (ADEOS-II)    
1 27597U 02056A   25337.82428242  .00000550  00000+0  23439-3 0  9998
2 27597  98.7621 290.7344 0000296   7.5181 352.6005 14.29196416196609
H-2A R/B                
1 27601U 02056E   25337.95297553  .00000621  00000+0  23204-3 0  9996
2 27601  98.3052 297.0604 0071507  86.9124 314.7601 14.33665277200393
CZ-4B R/B               
1 28059U 03049C   25337.93016351  .00000777  00000+0  18977-3 0  9993
2 28059  98.6780 324.1616 0048541 162.6675 197.6192 14.54897349172674
CZ-2C R/B               
1 28222U 04012C   25337.92389467  .00057557  00000+0  86210-3 0  9999
2 28222  97.7441  29.8230 0016942 304.9469  55.0192 15.54613524189355
SL-16 R/B               
1 28353U 04021B   25337.64092031 -.00000099  00000+0 -26853-4 0  9990
2 28353  71.0022  74.0584 0005774 212.4894 147.5874 14.14582511109251
CZ-4B R/B               
1 28415U 04035C   25337.97841884  .00015660  00000+0  58160-3 0  9991
2 28415  97.3617   8.4409 0032138 310.0104  49.8315 15.27152830165293
CZ-2C R/B               
1 28480U 04046B   25337.84335538  .00000346  00000+0  14322-3 0  9992
2 28480  98.1982 253.7745 0140678  78.4049 283.2885 14.26934563 94835
ARIANE 5 R/B            
1 28499U 04049H   25337.89304789  .00001843  00000+0  21038-3 0  9999
2 28499  98.2521 137.8574 0083549 302.0186  57.2930 14.84980491131576
CZ-2D R/B               
1 28738U 05024B   25337.57135810  .00032073  00000+0  52370-3 0  9993
2 28738  97.3628 344.7833 0006892  36.2420 323.9298 15.52488448124832
